NORAD_CAT_ID,OBJECT_NAME,OBJECT_TYPE,EPOCH,MEAN_MOTION,ECCENTRICITY,INCLINATION,RA_OF_ASC_NODE,ARG_OF_PERICENTER,MEAN_ANOMALY,BSTAR,MEAN_MOTION_DOT,MEAN_MOTION_DDOT,TLE_LINE0,TLE_LINE1,TLE_LINE2,SEMIMAJOR_AXIS,PERIOD,APOGEE,PERIGEE,DECAYED
52478.0,STARLINK-3825,PAYLOAD,2022-08-01 06:00:00,15.08860351,0.0002609,53.2158,208.8335,53.2456,345.3172,-0.0013919,-0.00022386,0.0,0 STARLINK-3825,1 52478U 22049AD  22213.25001157 -.00022386  00000-0 -13919-2 0  9992,2 52478  53.2158 208.8335 0002609  53.2456 345.3172 15.08860351 13672,6917.818,95.436,541.488,537.878,0.0
52478.0,STARLINK-3825,PAYLOAD,2022-08-01 14:00:01,15.08867757,0.0002601,53.2158,207.3368,51.5043,358.6641,-0.0016817,-0.00026975,0.0,0 STARLINK-3825,1 52478U 22049AD  22213.58334491 -.00026975  00000-0 -16817-2 0  9996,2 52478  53.2158 207.3368 0002601  51.5043 358.6641 15.08867757  1309,6917.795999999999,95.436,541.46,537.861,0.0
52478.0,STARLINK-3825,PAYLOAD,2022-08-01 22:00:00,15.08846361,0.0002481999999999,53.216,205.83900000000003,56.19300000000001,5.5964,-0.00048726,-8.037e-05,0.0,0 STARLINK-3825,1 52478U 22049AD  22213.91667824 -.00008037  00000-0 -48726-3 0  9996,2 52478  53.2160 205.8390 0002482  56.1930   5.5964 15.08846361 13771,6917.861,95.437,541.443,538.009,0.0
52478.0,STARLINK-3825,PAYLOAD,2022-08-02 14:00:01,15.08846401,0.0002616,53.2163,202.8475,51.4213,33.5476,-0.0018480999999999,-0.00029588,0.0,0 STARLINK-3825,1 52478U 22049AD  22214.58334491 -.00029588  00000-0 -18481-2 0  9999,2 52478  53.2163 202.8475 0002616  51.4213  33.5476 15.08846401  1306,6917.861,95.437,541.536,537.9159999999998,0.0
52478.0,STARLINK-3825,PAYLOAD,2022-08-03 06:00:00,15.08840754,0.0002736,53.2167,199.8553,53.63800000000001,54.514,-0.00082061,-0.00013326,0.0,0 STARLINK-3825,1 52478U 22049AD  22215.25001157 -.00013326  00000-0 -82061-3 0  9993,2 52478  53.2167 199.8553 0002736  53.6380  54.5140 15.08840754 13976,6917.878000000002,95.438,541.636,537.85,0.0
52478.0,STARLINK-3825,PAYLOAD,2022-08-03 14:00:01,15.08855654,0.0002706999999999,53.2168,198.3585,53.2155,66.5222,-0.0018820999999999,-0.00030132,0.0,0 STARLINK-3825,1 52478U 22049AD  22215.58334491 -.00030132  00000-0 -18821-2 0  9995,2 52478  53.2168 198.3585 0002707  53.2155  66.5222 15.08855654  1303,6917.833000000001,95.437,541.57,537.825,0.0
52478.0,STARLINK-3825,PAYLOAD,2022-08-03 22:00:01,15.08834525,0.0002652,53.2172,196.8609,58.1664,73.2367,0.001725,0.00027269,0.0,0 STARLINK-3825,1 52478U 22049AD  22215.91668981  .00027269  00000-0  17250-2 0  9996,2 52478  53.2172 196.8609 0002652  58.1664  73.2367 15.08834525  1305,6917.897,95.438,541.597,537.927,0.0
52478.0,STARLINK-3825,PAYLOAD,2022-08-04 14:00:01,15.08871795,0.0002708999999999,53.2171,193.8694,54.5268,100.0101,-0.0048858,-0.00077286,0.0,0 STARLINK-3825,1 52478U 22049AD  22216.58334491 -.00077286  00000-0 -48858-2 0  9990,2 52478  53.2171 193.8694 0002709  54.5268 100.0101 15.08871795  1303,6917.783,95.436,541.5219999999998,537.774,0.0
52478.0,STARLINK-3825,PAYLOAD,2022-08-04 22:00:00,15.0881883,0.0002601,53.2174,192.3721,58.6975,107.4394,0.0013501,0.00021252,0.0,0 STARLINK-3825,1 52478U 22049AD  22216.91667824  .00021252  00000-0  13501-2 0  9993,2 52478  53.2174 192.3721 0002601  58.6975 107.4394 15.08818830  1308,6917.945,95.439,541.609,538.011,0.0
52478.0,STARLINK-3825,PAYLOAD,2022-08-05 06:00:02,15.08746275,0.0002655,53.2176,190.8828,53.514,124.3057,0.0062437,0.00100242,0.0,0 STARLINK-3825,1 52478U 22049AD  22217.25002315  .00100242  00000-0  62437-2 0  9998,2 52478  53.2176 190.8828 0002655  53.5140 124.3057 15.08746275 14275,6918.167,95.443,541.869,538.195,0.0
52478.0,STARLINK-3825,PAYLOAD,2022-08-05 14:00:01,15.08846268,0.0002675,53.2169,189.3803,56.0772,133.3026,-0.0021563,-0.0003444999999999,0.0,0 STARLINK-3825,1 52478U 22049AD  22217.58335648 -.00034450  00000-0 -21563-2 0  9996,2 52478  53.2169 189.3803 0002675  56.0772 133.3026 15.08846268  1303,6917.861,95.437,541.577,537.876,0.0
52478.0,STARLINK-3825,PAYLOAD,2022-08-05 22:00:00,15.08831938,0.0002617,53.2172,187.8833,60.89,140.0149,0.0010929,0.00017145,0.0,0 STARLINK-3825,1 52478U 22049AD  22217.91667824  .00017145  00000-0  10929-2 0  9991,2 52478  53.2172 187.8833 0002617  60.8900 140.0149 15.08831938  1304,6917.905,95.438,541.58,537.96,0.0
52478.0,STARLINK-3825,PAYLOAD,2022-08-06 14:00:01,15.08855113,0.0002676,53.2165,184.8913,58.5468,165.5366,-0.0021452,-0.00034284,0.0,0 STARLINK-3825,1 52478U 22049AD  22218.58334491 -.00034284  00000-0 -21452-2 0  9994,2 52478  53.2165 184.8913 0002676  58.5468 165.5366 15.08855113 14487,6917.834,95.437,541.55,537.8480000000002,0.0
52478.0,STARLINK-3825,PAYLOAD,2022-08-06 20:57:36,15.08841401,0.0002625,53.218,183.5894,58.2588,301.866,-2.2169e-05,-6.41e-06,0.0,0 STARLINK-3825,1 52478U 22049AD  22218.87333452 -.00000641  00000-0 -22169-4 0  9990,2 52478  53.2180 183.5894 0002625  58.2588 301.8660 15.08841401 15604,6917.876,95.437,541.557,537.925,0.0
52478.0,STARLINK-3825,PAYLOAD,2022-08-07 06:00:00,15.08835833,0.0002787,53.2163,181.8998,58.9055,188.3823,0.00090992,0.00014222,0.0,0 STARLINK-3825,1 52478U 22049AD  22219.25001157  .00014222  00000-0  90992-3 0  9993,2 52478  53.2163 181.8998 0002787  58.9055 188.3823 15.08835833 14583,6917.893,95.438,541.686,537.83,0.0
52478.0,STARLINK-3825,PAYLOAD,2022-08-07 14:00:01,15.08867246,0.0002634999999999,53.216,180.4022,60.4721,198.4108,-0.0046861,-0.00074161,0.0,0 STARLINK-3825,1 52478U 22049AD  22219.58334491 -.00074161  00000-0 -46861-2 0  9994,2 52478  53.2160 180.4022 0002635  60.4721 198.4108 15.08867246  1300,6917.797,95.436,541.485,537.839,0.0
52478.0,STARLINK-3825,PAYLOAD,2022-08-07 22:00:00,15.08830875,0.0002587,53.216,178.9054,64.4476,206.0299,0.00047215,7.232e-05,0.0,0 STARLINK-3825,1 52478U 22049AD  22219.91667824  .00007232  00000-0  47215-3 0  9998,2 52478  53.2160 178.9054 0002587  64.4476 206.0299 15.08830875  1309,6917.908,95.438,541.563,537.984,0.0
52478.0,STARLINK-3825,PAYLOAD,2022-08-08 14:00:01,15.08856275,0.0002624,53.2157,175.9131,62.0568,231.6673,-0.0011759,-0.00018964,0.0,0 STARLINK-3825,1 52478U 22049AD  22220.58335648 -.00018964  00000-0 -11759-2 0  9998,2 52478  53.2157 175.9131 0002624  62.0568 231.6673 15.08856275  1308,6917.831,95.437,541.511,537.88,0.0
52478.0,STARLINK-3825,PAYLOAD,2022-08-08 22:00:00,15.08876421,0.000258,53.2158,174.4163,65.8622,239.4007,-0.0021785,-0.00034829,0.0,0 STARLINK-3825,1 52478U 22049AD  22220.91667824 -.00034829  00000-0 -21785-2 0  9997,2 52478  53.2158 174.4163 0002580  65.8622 239.4007 15.08876421  1303,6917.769,95.435,541.419,537.849,0.0
52478.0,STARLINK-3825,PAYLOAD,2022-08-09 06:00:00,15.0882647,0.0002647,53.216,172.9217,60.1382,256.7503,0.00061551,9.518e-05,0.0,0 STARLINK-3825,1 52478U 22049AD  22221.25001157  .00009518  00000-0  61551-3 0  9997,2 52478  53.2160 172.9217 0002647  60.1382 256.7503 15.08826470 14883,6917.922,95.438,541.618,537.956,0.0
52478.0,STARLINK-3825,PAYLOAD,2022-08-09 14:00:01,15.08826853,0.0002489,53.216,171.4239,61.3112,267.1623,-0.001778,-0.00028465,0.0,0 STARLINK-3825,1 52478U 22049AD  22221.58334491 -.00028465  00000-0 -17780-2 0  9991,2 52478  53.2160 171.4239 0002489  61.3112 267.1623 15.08826853  1306,6917.920999999999,95.438,541.507,538.064,0.0
52478.0,STARLINK-3825,PAYLOAD,2022-08-09 22:00:00,15.088265599999998,0.0002494,53.2163,169.9273,64.4683,275.5663,7.131e-05,8.46e-06,0.0,0 STARLINK-3825,1 52478U 22049AD  22221.91667824  .00000846  00000-0  71310-4 0  9999,2 52478  53.2163 169.9273 0002494  64.4683 275.5663 15.08826560 14982,6917.920999999999,95.438,541.512,538.061,0.0
52478.0,STARLINK-3825,PAYLOAD,2022-08-10 14:00:01,15.0883724,0.000254,53.2168,166.9349,62.4851,300.7099,-0.00041072,-6.819e-05,0.0,0 STARLINK-3825,1 52478U 22049AD  22222.58334491 -.00006819  00000-0 -41072-3 0  9993,2 52478  53.2168 166.9349 0002540  62.4851 300.7099 15.08837240  1308,6917.889,95.438,541.511,537.997,0.0
52478.0,STARLINK-3825,PAYLOAD,2022-08-10 22:00:00,15.08851042,0.0002577,53.217,165.4398,64.8817,309.8944,-0.00022709,-3.902e-05,0.0,0 STARLINK-3825,1 52478U 22049AD  22222.91667824 -.00003902  00000-0 -22709-3 0  9995,2 52478  53.2170 165.4398 0002577  64.8817 309.8944 15.08851042  1302,6917.847,95.437,541.494,537.929,0.0
52478.0,STARLINK-3825,PAYLOAD,2022-08-11 06:00:02,15.08838964,0.0002663,53.2174,163.9437,60.4653,325.9848,0.00021183,3.084e-05,0.0,0 STARLINK-3825,1 52478U 22049AD  22223.25002315  .00003084  00000-0  21183-3 0  9995,2 52478  53.2174 163.9437 0002663  60.4653 325.9848 15.08838964 15180,6917.884,95.438,541.591,537.906,0.0
52478.0,STARLINK-3825,PAYLOAD,2022-08-11 14:00:01,15.08826032,0.0002497,53.2177,162.4459,63.2823,334.7064,0.00012087,1.635e-05,0.0,0 STARLINK-3825,1 52478U 22049AD  22223.58334491  .00001635  00000-0  12087-3 0  9997,2 52478  53.2177 162.4459 0002497  63.2823 334.7064 15.08826032  1306,6917.9230000000025,95.438,541.515,538.061,0.0
52478.0,STARLINK-3825,PAYLOAD,2022-08-12 14:00:01,15.08839828,0.0002418,53.2183,157.957,64.9167,7.8658,-0.00045393,-7.506e-05,0.0,0 STARLINK-3825,1 52478U 22049AD  22224.58334491 -.00007506  00000-0 -45393-3 0  9999,2 52478  53.2183 157.9570 0002418  64.9167   7.8658 15.08839828 15385,6917.880999999999,95.438,541.419,538.073,0.0
52478.0,STARLINK-3825,PAYLOAD,2022-08-12 22:00:01,15.08854916,0.0002424999999999,53.2184,156.4611,65.7688,18.6577,-0.0011614,-0.00018733,0.0,0 STARLINK-3825,1 52478U 22049AD  22224.91668981 -.00018733  00000-0 -11614-2 0  9992,2 52478  53.2184 156.4611 0002425  65.7688  18.6577 15.08854916  1303,6917.835,95.437,541.377,538.0219999999998,0.0
52478.0,STARLINK-3825,PAYLOAD,2022-08-13 14:00:01,15.08813455,0.0002284,53.2183,153.4683,65.5619,41.9914,0.0012963,0.00020388,0.0,0 STARLINK-3825,1 52478U 22049AD  22225.58334491  .00020388  00000-0  12963-2 0  9997,2 52478  53.2183 153.4683 0002284  65.5619  41.9914 15.08813455  1300,6917.962,95.439,541.4069999999998,538.246,0.0
